#dP2024  9 16  6  0  0.00000000      96 __u+U IGS20 EXT  IAC
## 2332 108000.00000000   900.00000000 60569 0.2500000000000
+   53   G02G03G04G05G06G07G08G09G10G11G12G13G14G15G16G17G18
+        G19G20G21G22G23G24G25G26G27G28G29G30G31G32R01R02R03
+        R04R05R07R08R09R11R12R14R15R16R17R18R19R20R21R22R24
+        R25R26  0  0  0  0  0  0  0  0  0  0  0  0  0  0  0
+          0  0  0  0  0  0  0  0  0  0  0  0  0  0  0  0  0
++         8  8  7  8  8  8  7  7  8  9  8  8  8  7  9  7  9
++         7  8  7  8  8  8  8  8  7  9  7  9  8  7  9  8  7
++         8  7  9  9  7  8  9  8  9  9  7 10  9  8  9  7  8
++         9  9  0  0  0  0  0  0  0  0  0  0  0  0  0  0  0
++         0  0  0  0  0  0  0  0  0  0  0  0  0  0  0  0  0
%c M  cc GPS ccc cccc cccc cccc cccc ccccc ccccc ccccc ccccc
%c cc cc ccc ccc cccc cccc cccc cccc ccccc ccccc ccccc ccccc
%f  0.0000000  0.000000000  0.00000000000  0.000000000000000
%f  0.0000000  0.000000000  0.00000000000  0.000000000000000
%i    0    0    0    0      0      0      0      0         0
%i    0    0    0    0      0      0      0      0         0
/* IAC                                ULTRA-RAPID PREDICTION
/* S/V CLOCKS ARE ALIGNED TO GNSS TIME                      
/* G:C1WC2W R:C1PC2P E:C1XC5X C:C2IC6I J:C1CC2S             
/* PCV:IGS20_2317 OL/AL:FES2004  NONE     YN ORB:CoN CLK:CoN
*  2024 09 16 22 30  0.00000000
PG02 -20221.017386 -13617.386289 -10459.876750   -356.603062
PG03 -12361.717616 -18402.243839  14542.749515    540.086995
PG04 -14044.936457  -7844.613726  21172.572970    444.963519
PG05   5240.511067  26000.137190   -158.073780   -186.819705
PG06 -14916.737831   8332.281092  20431.750264     26.077798
PG07 -25459.407410  -6035.031777  -5274.967486    -37.065980
PG08  -3895.302902 -16136.654962 -20757.295317    354.816081
PG09 -20846.953671   2603.248199  16192.610723    359.467521
PG10  11120.780775 -13643.215522 -19566.349684   -127.548937
PG11    422.893931  16176.896148  21106.116635   -735.318904
PG12   9862.473383  21590.286009  11681.706133   -538.557378
PG13  -6042.831298  18158.464615 -18541.600133    676.848111
PG14 -13749.703481   9582.549429 -20512.374852    497.137448
PG15   6285.081747  15837.907221 -20862.068008    205.086986
PG16    704.664679 -26062.074177   3247.124590   -179.170288
PG17 -22454.267364  14195.460126  -1762.888222    624.732328
PG18  25181.915311   5439.664944  -6908.616552   -653.720201
PG19 -19192.237628  16993.158105   5890.760367    538.958263
PG20   -213.548559  24181.505533  11222.870956    370.572315
PG21 -15992.833828 -15471.691622 -14846.031133    101.619584
PG22 -10363.269509  18059.550240 -16250.044550    -62.519579
PG23  15014.905300    734.925488 -21885.228344    321.693900
PG24  18170.992666  15129.545487 -12939.506428   -486.625444
PG25  15352.685131  10441.237115  18747.470217    499.624664
PG26   6513.154894 -20727.738851  14859.765981     77.337825
PG27   7295.191611 -20080.206019 -15794.973497    -33.862927
PG28  16828.095163  -7970.981664  18929.778983   -413.663023
PG29  19649.888496   1481.368740  17826.980340   -577.408199
PG30 -22031.522738   2857.477645 -14596.651225   -319.998325
PG31   5178.941233 -14340.089987  21509.977485   -224.608554
PG32  21073.295687 -15915.354608  -1260.712453   -596.485453
PR01  15485.986407 -16766.494770 -11403.756177     98.031582
PR02  10616.121110 -22475.616333   5599.348177    -24.694392
PR03  -1124.163667 -16183.315579  19701.423682    107.700149
PR04 -11529.861338  -1257.957411  22743.222890    255.024560
PR05 -16140.731889  14298.187893  13654.934496    137.753820
PR07   1385.733376  15883.435550 -19896.582030     91.045311
PR08  11706.774548   1000.413214 -22582.312694     -6.391518
PR09   1357.074279  18687.801470 -17243.358488    209.524519
PR11  15880.039414  14881.366677  13302.649479     11.647028
PR12  10599.953153  -3626.287544  22944.430597     44.926230
PR14 -11916.994036 -22476.395779   2033.778624     26.925993
PR15 -15839.261800 -13636.858033 -14606.347701     75.814837
PR16 -10558.312301   3366.986301 -22963.660362     29.183880
PR17 -11681.648306  -9614.472833 -20509.778458    122.612187
PR18 -23777.702428  -4423.396330  -8148.205800    162.392007
PR19 -24564.887567   1469.158411   6687.246740   -291.613324
PR20  -9054.665615   9262.357216  21991.450580   -119.173925
PR21  10954.728701   9776.529466  20872.070028   -135.051347
PR22  24089.404140   4636.147391   7013.269563     45.211841
PR24   8074.296235 -10214.225585 -21920.334002    -72.300586
PR25  11729.359384  10262.592348  20210.004308    -99.694596
PR26  10977.510044   2438.914504 -22881.645704     29.700284
*  2024 09 16 22 45  0.00000000
PG02 -18829.876815 -13444.469260 -12863.029900   -356.595831
PG03 -12489.909486 -19953.474734  12240.866115    540.098852
PG04 -12147.507433  -9389.768249  21698.277084    444.969917
PG05   4981.799635  25888.957592   2720.492880   -186.820801
PG06 -16986.984962   7475.404854  19108.682023     26.054293
PG07 -25844.593778  -6438.717289  -2511.396265    -37.061823
PG08  -2110.701107 -17605.892166 -19754.048306    354.827690
PG09 -19483.758400   1175.044162  17946.178396    359.482027
PG10  11626.030463 -11345.146072 -20723.658243   -127.560053
PG11  -1848.697923  15289.202139  21678.142145   -735.322623
PG12   9773.796813  22837.453845   9180.404861   -538.559890
PG13  -7801.158087  19097.440945 -16821.263101    676.849966
PG14 -14204.437374   7220.854438 -21178.062004    497.145151
PG15   4738.500075  17464.544358 -19912.562100    205.090966
PG16   1044.524448 -25513.485323   6061.853798   -179.161132
PG17 -22262.699682  13770.193633  -4590.648458    624.722059
PG18  25701.875674   5842.648235  -4130.516344   -653.722129
PG19 -19785.783415  17072.636457   3060.995094    538.962693
PG20   -904.060947  22941.120972  13550.590027    370.571985
PG21 -14180.884154 -15134.411533 -16757.578286    101.618933
PG22 -10694.738533  16060.754701 -17970.993282    -62.522907
PG23  15494.423742   3159.732088 -21348.466023    321.701475
PG24  16637.803873  14966.075665 -15053.736294   -486.625086
PG25  15621.995624  12544.780848  17223.719821    499.624709
PG26   7239.665202 -19001.495896  16729.847059     77.330125
PG27   8684.891143 -21004.583544 -13673.558390    -33.862984
PG28  18762.591933  -7199.741022  17356.158652   -413.675461
PG29  17995.092620   2823.882447  19333.309890   -577.406023
PG30 -23425.498746   2105.310040 -12439.308287   -319.991883
PG31   7521.937974 -13447.378958  21429.745125   -224.608046
PG32  20995.283056 -15496.954880  -4110.260199   -596.482125
PR01  14659.275274 -15424.655081 -14077.411342     98.032890
PR02  10713.728810 -22984.314847   2420.184087    -24.694539
PR03    -92.241406 -18252.439762  17827.075129    107.700971
PR04 -10120.895336  -3709.250457  23141.420523    255.026341
PR05 -15112.146642  12769.902921  16121.961634    137.754347
PR07    333.257725  17985.783343 -18077.167717     91.046009
PR08  10322.507672   3466.572268 -23011.865321     -6.391354
PR09    166.816268  16775.360079 -19160.814138    209.526476
PR11  16762.059786  16064.920520  10556.409733     11.645907
PR12  12079.107138  -1255.913656  22460.832661     44.926656
PR14 -11781.262684 -22038.410858   5189.835753     26.926074
PR15 -16788.233636 -14984.293357 -11998.272898     75.814554
PR16 -12056.460495    995.099406 -22448.796147     29.184186
PR17  -9063.098996  -9578.050775 -21813.300588    122.615253
PR18 -22586.930406  -4237.383064 -11092.601682    162.393778
PR19 -25201.635475   1664.282365   3520.047149   -291.614523
PR20 -11691.817770   9268.701774  20709.119474   -119.174751
PR21   8302.310824   9713.888704  22086.511256   -135.054219
PR22  23046.790862   4475.249029   9998.459607     45.203690
PR24  10708.060188 -10313.116212 -20715.906426    -72.301922
PR25   9157.056029  10139.261555  21554.724356    -99.692096
PR26   9610.058833   4929.730017 -23093.241170     29.713644
EOF
